{"type": "FeatureCollection", "features": [ {"type": "Feature", "properties": {"norad_id": 41469, "name": "IRNSS-1G", "group": "gnss", "lat": -2.0753498010995295, "lon": -52.75280293783053, "alt_km": 35791.82348294847, "timestamp": "2025-12-26T05:31:12.749542+00:00", "meta": {"OBJECT_NAME": "IRNSS-1G", "OBJECT_ID": "2016-027A", "EPOCH": "2025-12-25T19:59:21.836832", "MEAN_MOTION": 1.00273523, "ECCENTRICITY": 0.00027082, "INCLINATION": 4.7666, "RA_OF_ASC_NODE": 101.7633, "ARG_OF_PERICENTER": 326.3676, "MEAN_ANOMALY": 95.8651, "EPHEMERIS_TYPE": 0, "CLASSIFICATION_TYPE": "U", "NORAD_CAT_ID": 41469, "ELEMENT_SET_NO": 999, "REV_AT_EPOCH": 3544, "BSTAR": 0, "MEAN_MOTION_DOT": -3.14e-06, "MEAN_MOTION_DDOT": 0}, "tle": {"line1": "1 41469U 16027A   25359.83289163 -.00000314  00000+0  00000+0 0  9991", "line2": "2 41469   4.7666 101.7633 0002708 326.3676  95.8651  1.00273523 35449"}}, "geometry": {"type": "Point", "coordinates": [-52.75280293783053, -2.0753498010995295]}}, {"type": "Feature", "properties": {"norad_id": 41549, "name": "GSAT0211 (GALILEO 14)", "group": "gnss", "lat": -49.55636897267032, "lon": 171.6546438948081, "alt_km": 23226.61457449976, "timestamp": "2025-12-26T05:31:12.749553+00:00", "meta": {"OBJECT_NAME": "GSAT0211 (GALILEO 14)", "OBJECT_ID": "2016-030A", "EPOCH": "2025-12-23T23:52:07.352256", "MEAN_MOTION": 1.70473256, "ECCENTRICITY": 0.0004011, "INCLINATION": 55.1486, "RA_OF_ASC_NODE": 226.5135, "ARG_OF_PERICENTER": 16.1635, "MEAN_ANOMALY": 343.9466, "EPHEMERIS_TYPE": 0, "CLASSIFICATION_TYPE": "U", "NORAD_CAT_ID": 41549, "ELEMENT_SET_NO": 999, "REV_AT_EPOCH": 5968, "BSTAR": 0, "MEAN_MOTION_DOT": 7.2e-07, "MEAN_MOTION_DDOT": 0}, "tle": {"line1": "1 41549U 16030A   25357.99452954  .00000072  00000+0  00000+0 0  9999", "line2": "2 41549  55.1486 226.5135 0004011  16.1635 343.9466  1.70473256 59684"}}, "geometry": {"type": "Point", "coordinates": [171.6546438948081, -49.55636897267032]}}, {"type": "Feature", "properties": {"norad_id": 41550, "name": "GSAT0210 (GALILEO 13)", "group": "gnss", "lat": 36.151404469714585, "lon": 15.869988092410557, "alt_km": 23216.582933191057, "timestamp": "2025-12-26T05:31:12.749563+00:00", "meta": {"OBJECT_NAME": "GSAT0210 (GALILEO 13)", "OBJECT_ID": "2016-030B", "EPOCH": "2025-12-24T20:07:27.603552", "MEAN_MOTION": 1.70473396, "ECCENTRICITY": 5.683e-05, "INCLINATION": 55.1478, "RA_OF_ASC_NODE": 226.4883, "ARG_OF_PERICENTER": 175.0994, "MEAN_ANOMALY": 184.9941, "EPHEMERIS_TYPE": 0, "CLASSIFICATION_TYPE": "U", "NORAD_CAT_ID": 41550, "ELEMENT_SET_NO": 999, "REV_AT_EPOCH": 5969, "BSTAR": 0, "MEAN_MOTION_DOT": 7.1e-07, "MEAN_MOTION_DDOT": 0}, "tle": {"line1": "1 41550U 16030B   25358.83851393  .00000071  00000+0  00000+0 0  9994", "line2": "2 41550  55.1478 226.4883 0000568 175.0994 184.9941  1.70473396 59699"}}, "geometry": {"type": "Point", "coordinates": [15.869988092410557, 36.151404469714585]}}, {"type": "Feature", "properties": {"norad_id": 41586, "name": "BEIDOU-2 G7 (C03)", "group": "gnss", "lat": -1.1739524850226073, "lon": -71.86136333054168, "alt_km": 35804.191275156285, "timestamp": "2025-12-26T05:31:12.749575+00:00", "meta": {"OBJECT_NAME": "BEIDOU-2 G7 (C03)", "OBJECT_ID": "2016-037A", "EPOCH": "2025-12-25T22:09:08.222976", "MEAN_MOTION": 1.00268204, "ECCENTRICITY": 0.00051777, "INCLINATION": 1.7871, "RA_OF_ASC_NODE": 67.9012, "ARG_OF_PERICENTER": 0.645, "MEAN_ANOMALY": 108.832, "EPHEMERIS_TYPE": 0, "CLASSIFICATION_TYPE": "U", "NORAD_CAT_ID": 41586, "ELEMENT_SET_NO": 999, "REV_AT_EPOCH": 515, "BSTAR": 0, "MEAN_MOTION_DOT": -3.32e-06, "MEAN_MOTION_DDOT": 0}, "tle": {"line1": "1 41586U 16037A   25359.92301184 -.00000332  00000+0  00000+0 0  9990", "line2": "2 41586   1.7871  67.9012 0005177   0.6450 108.8320  1.00268204  5156"}}, "geometry": {"type": "Point", "coordinates": [-71.86136333054168, -1.1739524850226073]}}, {"type": "Feature", "properties": {"norad_id": 41589, "name": "EUTELSAT 117 WEST B (WAAS/PRN 131)", "group": "gnss", "lat": -0.003704547608622362, "lon": 60.807992024055025, "alt_km": 35785.9344433066, "timestamp": "2025-12-26T05:31:12.749587+00:00", "meta": {"OBJECT_NAME": "EUTELSAT 117 WEST B (WAAS/PRN 131)", "OBJECT_ID": "2016-038B", "EPOCH": "2025-12-24T09:59:01.014144", "MEAN_MOTION": 1.00277873, "ECCENTRICITY": 6.384e-05, "INCLINATION": 0.0094, "RA_OF_ASC_NODE": 154.0765, "ARG_OF_PERICENTER": 139.5473, "MEAN_ANOMALY": 192.3072, "EPHEMERIS_TYPE": 0, "CLASSIFICATION_TYPE": "U", "NORAD_CAT_ID": 41589, "ELEMENT_SET_NO": 999, "REV_AT_EPOCH": 3491, "BSTAR": 0, "MEAN_MOTION_DOT": 9e-08, "MEAN_MOTION_DDOT": 0}, "tle": {"line1": "1 41589U 16038B   25358.41598396  .00000009  00000+0  00000+0 0  9990", "line2": "2 41589   0.0094 154.0765 0000638 139.5473 192.3072  1.00277873 34915"}}, "geometry": {"type": "Point", "coordinates": [60.807992024055025, -0.003704547608622362]}}, {"type": "Feature", "properties": {"norad_id": 41859, "name": "GSAT0207 (GALILEO 15)", "group": "gnss", "lat": -29.523043937264664, "lon": 82.88947317886672, "alt_km": 23218.7270088146, "timestamp": "2025-12-26T05:31:12.749602+00:00", "meta": {"OBJECT_NAME": "GSAT0207 (GALILEO 15)", "OBJECT_ID": "2016-069A", "EPOCH": "2025-12-22T04:24:39.710016", "MEAN_MOTION": 1.70474442, "ECCENTRICITY": 0.00024396, "INCLINATION": 55.3874, "RA_OF_ASC_NODE": 105.9888, "ARG_OF_PERICENTER": 317.4324, "MEAN_ANOMALY": 42.5257, "EPHEMERIS_TYPE": 0, "CLASSIFICATION_TYPE": "U", "NORAD_CAT_ID": 41859, "ELEMENT_SET_NO": 999, "REV_AT_EPOCH": 5638, "BSTAR": 0, "MEAN_MOTION_DOT": 6e-08, "MEAN_MOTION_DDOT": 0}, "tle": {"line1": "1 41859U 16069A   25356.18379294  .00000006  00000+0  00000+0 0  9997", "line2": "2 41859  55.3874 105.9888 0002439 317.4324  42.5257  1.70474442 56382"}}, "geometry": {"type": "Point", "coordinates": [82.88947317886672, -29.523043937264664]}}, {"type": "Feature", "properties": {"norad_id": 41860, "name": "GSAT0212 (GALILEO 16)", "group": "gnss", "lat": 41.168561585695954, "lon": 142.9638599968099, "alt_km": 23212.213606851168, "timestamp": "2025-12-26T05:31:12.749616+00:00", "meta": {"OBJECT_NAME": "GSAT0212 (GALILEO 16)", "OBJECT_ID": "2016-069B", "EPOCH": "2025-12-23T19:07:58.296864", "MEAN_MOTION": 1.70474626, "ECCENTRICITY": 0.0002039, "INCLINATION": 55.3859, "RA_OF_ASC_NODE": 105.9395, "ARG_OF_PERICENTER": 17.7426, "MEAN_ANOMALY": 342.2518, "EPHEMERIS_TYPE": 0, "CLASSIFICATION_TYPE": "U", "NORAD_CAT_ID": 41860, "ELEMENT_SET_NO": 999, "REV_AT_EPOCH": 5666, "BSTAR": 0, "MEAN_MOTION_DOT": 1.3e-07, "MEAN_MOTION_DDOT": 0}, "tle": {"line1": "1 41860U 16069B   25357.79720251  .00000013  00000+0  00000+0 0  9998", "line2": "2 41860  55.3859 105.9395 0002039  17.7426 342.2518  1.70474626 56664"}}, "geometry": {"type": "Point", "coordinates": [142.9638599968099, 41.168561585695954]}}, {"type": "Feature", "properties": {"norad_id": 41861, "name": "GSAT0213 (GALILEO 17)", "group": "gnss", "lat": -6.155854800697948, "lon": -69.85474178129786, "alt_km": 23223.82653374318, "timestamp": "2025-12-26T05:31:12.749627+00:00", "meta": {"OBJECT_NAME": "GSAT0213 (GALILEO 17)", "OBJECT_ID": "2016-069C", "EPOCH": "2025-12-21T19:38:29.842080", "MEAN_MOTION": 1.70474953, "ECCENTRICITY": 0.00027355, "INCLINATION": 55.3872, "RA_OF_ASC_NODE": 106.002, "ARG_OF_PERICENTER": 282.3014, "MEAN_ANOMALY": 77.6427, "EPHEMERIS_TYPE": 0, "CLASSIFICATION_TYPE": "U", "NORAD_CAT_ID": 41861, "ELEMENT_SET_NO": 999, "REV_AT_EPOCH": 5649, "BSTAR": 0, "MEAN_MOTION_DOT": 4e-08, "MEAN_MOTION_DDOT": 0}, "tle": {"line1": "1 41861U 16069C   25355.81840095  .00000004  00000+0  00000+0 0  9999", "line2": "2 41861  55.3872 106.0020 0002735 282.3014  77.6427  1.70474953 56495"}}, "geometry": {"type": "Point", "coordinates": [-69.85474178129786, -6.155854800697948]}}, {"type": "Feature", "properties": {"norad_id": 41862, "name": "GSAT0214 (GALILEO 18)", "group": "gnss", "lat": 54.62718511326924, "lon": -150.39589789860338, "alt_km": 23220.870528548563, "timestamp": "2025-12-26T05:31:12.749638+00:00", "meta": {"OBJECT_NAME": "GSAT0214 (GALILEO 18)", "OBJECT_ID": "2016-069D", "EPOCH": "2025-12-24T07:27:29.645856", "MEAN_MOTION": 1.70474781, "ECCENTRICITY": 0.00017476, "INCLINATION": 55.3867, "RA_OF_ASC_NODE": 105.9257, "ARG_OF_PERICENTER": 287.2715, "MEAN_ANOMALY": 72.6994, "EPHEMERIS_TYPE": 0, "CLASSIFICATION_TYPE": "U", "NORAD_CAT_ID": 41862, "ELEMENT_SET_NO": 999, "REV_AT_EPOCH": 5666, "BSTAR": 0, "MEAN_MOTION_DOT": 1.5e-07, "MEAN_MOTION_DDOT": 0}, "tle": {"line1": "1 41862U 16069D   25358.31075979  .00000015  00000+0  00000+0 0  9991", "line2": "2 41862  55.3867 105.9257 0001747 287.2715  72.6994  1.70474781 56666"}}, "geometry": {"type": "Point", "coordinates": [-150.39589789860338, 54.62718511326924]}}, {"type": "Feature", "properties": {"norad_id": 42709, "name": "SES-15 (WAAS/PRN 133)", "group": "gnss", "lat": 0.02931206198835474, "lon": 48.590959075923806, "alt_km": 35787.57070540356, "timestamp": "2025-12-26T05:31:12.749649+00:00", "meta": {"OBJECT_NAME": "SES-15 (WAAS/PRN 133)", "OBJECT_ID": "2017-026A", "EPOCH": "2025-12-24T22:45:23.082912", "MEAN_MOTION": 1.00266955, "ECCENTRICITY": 1.926e-05, "INCLINATION": 0.0189, "RA_OF_ASC_NODE": 339.9937, "ARG_OF_PERICENTER": 321.3505, "MEAN_ANOMALY": 4.5524, "EPHEMERIS_TYPE": 0, "CLASSIFICATION_TYPE": "U", "NORAD_CAT_ID": 42709, "ELEMENT_SET_NO": 999, "REV_AT_EPOCH": 568, "BSTAR": 0, "MEAN_MOTION_DOT": 8.1e-07, "MEAN_MOTION_DDOT": 0}, "tle": {"line1": "1 42709U 17026A   25358.94818383  .00000081  00000+0  00000+0 0  9992", "line2": "2 42709   0.0189 339.9937 0000192 321.3505   4.5524  1.00266955  5689"}}, "geometry": {"type": "Point", "coordinates": [48.590959075923806, 0.02931206198835474]}}]}